MEAN_MOTION;ECCENTRICITY;INCLINATION;RA_OF_ASC_NODE;ARG_OF_PERICENTER;MEAN_ANOMALY;BSTAR;MEAN_MOTION_DOT;MEAN_MOTION_DDOT;TYPE
12.62263932;2.31E-5;51.983;28.2285;194.6936;165.3924;3.7973E-6;-1.03E-6;0;Globalstar
12.62263938;2.22E-5;51.983;27.2638;193.8148;166.2712;8.5209E-6;-1.02E-6;0;Globalstar
12.62263926;1.99E-5;51.9831;25.3346;195.6225;164.4636;-9.3278E-6;-1.05E-6;0;Globalstar
12.62263924;1.84E-5;51.9832;23.6464;197.0662;163.0199;-2.309E-5;-1.08E-6;0;Globalstar
12.62263929;1.71E-5;51.9833;21.9583;197.7461;162.34;-2.5767E-5;-1.08E-6;0;Globalstar
12.62263913;1.56E-5;51.9833;20.7525;196.76;163.3261;-2.7542E-5;-1.09E-6;0;Globalstar
12.62263927;1.47E-5;51.9833;19.3055;198.9698;161.1163;-1.6883E-5;-1.07E-6;0;Globalstar
12.62263922;1.32E-5;51.9833;17.8586;202.0078;158.0783;-2.5191E-5;-1.08E-6;0;Globalstar
12.62263979;1.07E-5;51.9834;14.7235;208.1195;151.9666;1.8742E-5;-1.0E-6;0;Globalstar
12.6226384;8.4E-6;51.9834;13.0353;196.6117;163.4746;-5.3801E-5;-1.13E-6;0;Globalstar
12.62263898;5.3E-6;51.9834;9.9002;191.7374;168.3492;5.532E-6;-1.03E-6;0;Globalstar
12.6226391;4.8E-6;51.9834;9.6591;199.204;160.8825;7.7316E-6;-1.02E-6;0;Globalstar
12.62263929;3.9E-6;51.9834;8.6945;196.3264;163.7602;4.0164E-5;-9.7E-7;0;Globalstar
12.62263923;2.1E-6;51.9835;6.524;198.3235;161.7631;3.4615E-5;-9.8E-7;0;Globalstar
12.62263943;1.0E-6;51.9835;3.63;54.477;305.6097;5.4848E-5;-9.4E-7;0;Globalstar
12.62263922;1.0E-6;51.9835;3.1477;358.4226;1.664;5.2202E-5;-9.4E-7;0;Globalstar
12.62263943;2.2E-6;51.9836;2.4243;19.5438;340.543;5.6548E-5;-9.4E-7;0;Globalstar
12.62263954;2.8E-6;51.9836;0.0126;14.3373;345.7495;6.3906E-5;-9.2E-7;0;Globalstar
12.62263949;5.0E-6;51.9836;357.601;23.1372;336.9497;3.9058E-5;-9.7E-7;0;Globalstar
12.6226396;4.8E-6;51.9837;356.8776;3.7852;356.3014;1.8441E-5;-1.0E-6;0;Globalstar
12.62263974;7.6E-6;51.9836;354.466;22.3288;337.7582;3.5053E-5;-9.7E-7;0;Globalstar
12.62263976;8.7E-6;51.9836;353.7426;21.114;338.973;3.8127E-5;-9.7E-7;0;Globalstar
12.62263964;9.9E-6;51.9836;351.5722;21.7472;338.3399;1.046E-5;-1.02E-6;0;Globalstar
12.62263998;1.12E-5;51.9835;350.6076;25.1196;334.9676;3.5043E-5;-9.7E-7;0;Globalstar
12.62264015;1.22E-5;51.9835;348.4372;24.402;335.6852;2.8484E-5;-9.9E-7;0;Globalstar
12.62263976;1.05E-5;51.9835;347.7135;21.2674;338.8197;2.1355E-5;-1.0E-6;0;Globalstar
12.62264009;1.18E-5;51.9835;345.543;24.9418;335.1454;4.0017E-5;-9.7E-7;0;Globalstar
12.62264045;1.37E-5;51.9831;342.4081;35.6916;324.396;5.5617E-5;-9.4E-7;0;Globalstar
12.62264059;1.41E-5;51.983;341.6847;36.5925;323.4951;7.4576E-5;-9.0E-7;0;Globalstar
12.6226407;1.58E-5;51.9829;339.273;37.9362;322.1516;8.3095E-5;-8.9E-7;0;Globalstar
12.62264076;1.67E-5;51.9829;338.5495;37.1145;322.9733;9.1486E-5;-8.7E-7;0;Globalstar
12.62264075;1.76E-5;51.9827;336.1378;39.3472;320.7408;9.3123E-5;-8.7E-7;0;Globalstar
12.62264079;1.79E-5;51.9829;333.4846;36.6384;323.4494;4.2373E-5;-9.6E-7;0;Globalstar
12.6226409;2.02E-5;51.9825;331.7968;40.3056;319.7826;9.8887E-5;-8.6E-7;0;Globalstar
12.62264086;2.06E-5;51.9824;330.1086;40.4466;319.6416;9.6555E-5;-8.6E-7;0;Globalstar
12.62264108;2.04E-5;51.9826;328.6613;36.4911;323.5969;4.5998E-5;-9.6E-7;0;Globalstar
12.62264094;2.1E-5;51.9826;327.2142;37.789;322.2991;2.9886E-5;-9.8E-7;0;Globalstar
12.62264123;2.3E-5;51.9821;325.2852;42.7792;317.3092;8.8671E-5;-8.8E-7;0;Globalstar
12.6226412;2.18E-5;51.9824;325.0437;40.1999;319.8884;4.7776E-5;-9.5E-7;0;Globalstar
12.6226416;2.37E-5;51.982;324.0793;45.4695;314.619;9.8869E-5;-8.6E-7;0;Globalstar
12.62264174;2.52E-5;51.9819;321.9088;45.6587;314.43;8.4316E-5;-8.9E-7;0;Globalstar
12.62264184;2.53E-5;51.9819;321.1853;47.9484;312.1404;7.9894E-5;-8.9E-7;0;Globalstar
12.62264188;2.54E-5;51.9819;320.9441;48.137;311.9518;8.4864E-5;-8.9E-7;0;Globalstar
12.62264184;2.65E-5;51.9817;318.0501;48.1284;311.9605;3.6825E-5;-9.7E-7;0;Globalstar
12.62264192;2.7E-5;51.9817;317.5677;47.808;312.281;3.9283E-5;-9.7E-7;0;Globalstar
12.62264189;2.81E-5;51.9815;314.9148;49.138;310.9511;2.4791E-5;-9.9E-7;0;Globalstar
12.62264208;2.86E-5;51.9814;314.1913;48.2197;311.8693;3.483E-5;-9.8E-7;0;Globalstar
12.62264236;2.95E-5;51.9813;311.7795;49.226;310.8632;5.3473E-5;-9.4E-7;0;Globalstar
12.62264252;2.99E-5;51.9812;310.0912;49.2924;310.7968;6.3828E-5;-9.2E-7;0;Globalstar
12.6226428;3.13E-5;51.981;306.2323;50.3117;309.7777;7.9176E-5;-9.0E-7;0;Globalstar
12.62264302;3.17E-5;51.9809;305.7499;50.261;309.8284;0.00010631;-8.5E-7;0;Globalstar
12.6226429;3.22E-5;51.9808;302.8557;53.0582;307.0313;9.6521E-5;-8.6E-7;0;Globalstar
12.6226433;3.23E-5;51.9808;302.6145;53.9644;306.1252;0.00012428;-8.2E-7;0;Globalstar
12.62264316;3.27E-5;51.9807;299.7201;55.6737;304.416;0.00011466;-8.3E-7;0;Globalstar
12.62264313;3.29E-5;51.9806;299.2378;55.479;304.6107;0.00010572;-8.5E-7;0;Globalstar
12.62264349;3.34E-5;51.9806;296.5847;56.4083;303.6816;0.00012108;-8.2E-7;0;Globalstar
12.62264317;3.21E-5;51.981;293.9316;54.3443;305.7453;1.8645E-5;-1.0E-6;0;Globalstar
12.62264412;3.45E-5;51.9805;290.555;57.6952;302.3947;9.3094E-5;-8.7E-7;0;Globalstar
12.62264414;3.64E-5;51.9805;287.6608;55.8288;304.2613;6.026E-5;-9.3E-7;0;Globalstar
12.62264431;3.63E-5;51.9805;284.7666;57.3023;302.7878;2.1191E-5;-1.0E-6;0;Globalstar
12.62264443;3.65E-5;51.9805;284.2842;57.4785;302.6116;1.8809E-5;-1.0E-6;0;Globalstar
12.62264483;3.64E-5;51.9804;281.6312;58.4926;301.5976;1.7398E-5;-1.01E-6;0;Globalstar
12.62264497;3.55E-5;51.9804;278.7371;59.8026;300.2875;-4.0478E-6;-1.04E-6;0;Globalstar
12.6226449;3.6E-5;51.9804;278.4959;58.7462;301.3439;-4.933E-7;-1.04E-6;0;Globalstar
12.6226448;3.61E-5;51.9803;275.6017;59.1734;300.9168;-4.5529E-6;-1.05E-6;0;Globalstar
12.62264497;3.61E-5;51.9803;275.3605;59.1364;300.9538;8.6287E-6;-1.02E-6;0;Globalstar
12.62264452;3.68E-5;51.9804;273.1899;59.0387;301.0515;-2.2834E-5;-1.08E-6;0;Globalstar
12.62264434;3.73E-5;51.9804;270.2957;58.7928;301.2975;-3.5594E-6;-1.04E-6;0;Globalstar
12.62264439;3.72E-5;51.9804;269.8133;58.7582;301.3321;1.4696E-5;-1.01E-6;0;Globalstar
12.62264479;3.7E-5;51.9804;267.4015;58.8745;301.2158;5.1508E-5;-9.5E-7;0;Globalstar
12.622645;3.71E-5;51.9805;266.9191;58.7844;301.3059;7.6702E-5;-9.0E-7;0;Globalstar
12.6226451;3.75E-5;51.9805;264.7485;58.2385;301.8518;9.1392E-5;-8.7E-7;0;Globalstar
12.62264483;3.8E-5;51.9805;264.2661;58.5328;301.5575;6.7709E-5;-9.2E-7;0;Globalstar
12.62264495;3.87E-5;51.9805;263.5426;58.1964;301.894;8.9987E-5;-8.8E-7;0;Globalstar
12.62264553;3.77E-5;51.9806;261.372;58.2298;301.8605;0.00010114;-8.6E-7;0;Globalstar
12.62264588;3.73E-5;51.9806;260.1661;58.01;302.0802;0.00012062;-8.2E-7;0;Globalstar
12.62264586;3.83E-5;51.9807;257.2721;57.5668;302.5235;8.5059E-5;-8.9E-7;0;Globalstar
12.62264594;3.76E-5;51.9807;254.1368;57.739;302.3513;3.0233E-5;-9.8E-7;0;Globalstar
12.62264594;3.76E-5;51.9807;254.1368;57.739;302.3513;3.0233E-5;-9.8E-7;0;Globalstar
12.62264597;3.76E-5;51.9808;251.0016;56.8524;303.2379;-2.2756E-5;-1.08E-6;0;Globalstar
12.62264597;3.76E-5;51.9808;251.0016;56.8524;303.2379;-2.2756E-5;-1.08E-6;0;Globalstar
12.62264565;3.76E-5;51.9808;249.0722;57.0442;303.046;-6.9832E-5;-1.16E-6;0;Globalstar
12.62264548;3.78E-5;51.9808;246.1782;56.6119;303.4784;-9.0124E-5;-1.2E-6;0;Globalstar
12.62264575;3.81E-5;51.9807;245.2135;56.1127;303.9776;-5.732E-5;-1.14E-6;0;Globalstar
12.62264564;3.79E-5;51.9807;243.043;55.9231;304.1671;-7.0426E-5;-1.16E-6;0;Globalstar
12.62264565;3.83E-5;51.9807;242.3195;55.636;304.4543;-5.4785E-5;-1.14E-6;0;Globalstar
12.62264557;3.87E-5;51.9807;240.149;55.5881;304.5022;-4.4525E-5;-1.12E-6;0;Globalstar
12.62264554;3.83E-5;51.9807;239.6666;55.1582;304.9321;-2.7945E-5;-1.09E-6;0;Globalstar
12.62264552;3.8E-5;51.9806;237.0138;54.3114;305.7788;-2.8077E-6;-1.04E-6;0;Globalstar
12.62264539;3.73E-5;51.9807;236.7726;54.1926;305.8975;-5.2072E-6;-1.05E-6;0;Globalstar
12.62264549;3.75E-5;51.9806;236.0491;53.7448;306.3453;1.2953E-5;-1.01E-6;0;Globalstar
12.62264551;3.79E-5;51.9806;233.1551;53.1265;306.9636;6.1833E-5;-9.3E-7;0;Globalstar
12.62264553;3.79E-5;51.9806;232.9139;52.7844;307.3057;6.0699E-5;-9.3E-7;0;Globalstar
12.62264594;3.78E-5;51.9806;230.0198;52.1903;307.8997;0.00011612;-8.3E-7;0;Globalstar
12.62264612;3.68E-5;51.981;226.8847;49.9591;310.1307;1.0228E-5;-1.02E-6;0;Globalstar
12.62264589;3.78E-5;51.9809;222.0614;48.6706;311.4193;7.2872E-6;-1.02E-6;0;Globalstar
12.62264584;3.8E-5;51.9809;221.579;48.5276;311.5623;9.2013E-6;-1.02E-6;0;Globalstar
12.62264583;3.84E-5;51.9808;218.685;47.6396;312.4503;6.1606E-6;-1.03E-6;0;Globalstar
12.62264598;3.88E-5;51.9808;217.9615;47.08;313.0099;2.2799E-5;-1.0E-6;0;Globalstar
12.62264591;3.92E-5;51.9807;215.5498;46.4675;313.6224;1.3912E-5;-1.01E-6;0;Globalstar
12.62264599;3.95E-5;51.9807;214.8263;45.8341;314.2558;1.9828E-5;-1.0E-6;0;Globalstar
12.62264602;3.99E-5;51.9806;212.6557;45.4534;314.6365;3.434E-5;-9.8E-7;0;Globalstar
12.62264624;4.04E-5;51.9806;211.9323;44.769;315.3209;4.835E-5;-9.5E-7;0;Globalstar
12.62264635;4.07E-5;51.9806;210.4852;44.2548;315.835;5.5332E-5;-9.4E-7;0;Globalstar
12.62264615;4.19E-5;51.98;208.7973;44.3363;315.7537;-3.8195E-5;-1.11E-6;0;Globalstar
12.62264601;4.21E-5;51.9799;207.3503;43.9982;316.0918;-4.0659E-5;-1.11E-6;0;Globalstar
12.62264604;4.27E-5;51.9798;205.9033;43.3375;316.7525;-2.0056E-5;-1.07E-6;0;Globalstar
12.62264596;4.29E-5;51.9797;203.7327;42.6565;317.4335;4.0338E-6;-1.03E-6;0;Globalstar
12.62264667;4.29E-5;51.9803;202.7678;41.5322;318.5577;4.0941E-5;-9.6E-7;0;Globalstar
12.62264613;4.43E-5;51.9795;199.874;41.2959;318.7941;6.8114E-5;-9.2E-7;0;Globalstar
12.6226467;4.49E-5;51.9801;196.7386;39.5831;320.5068;2.3611E-5;-1.0E-6;0;Globalstar
12.62264689;4.57E-5;51.9799;193.8445;39.0544;321.0356;3.3034E-5;-9.8E-7;0;Globalstar
12.62264652;4.66E-5;51.9793;192.3976;39.4789;320.6111;0.00013207;-8.0E-7;0;Globalstar
12.62264679;4.75E-5;51.9792;190.7094;39.4184;320.6717;0.00013429;-8.0E-7;0;Globalstar
12.62264693;4.8E-5;51.9792;188.5388;39.3445;320.7456;0.00011764;-8.3E-7;0;Globalstar
12.62264708;4.84E-5;51.9791;188.0565;39.0678;321.0223;0.00012511;-8.1E-7;0;Globalstar
